INTELSAT 902 (IS-902)   
1 26900U 01039A   26190.32197634 -.00000275  00000+0  00000+0 0  9996
2 26900   6.1715  71.5125 0004423  33.4879 248.0640  1.00271871 90917
INTELSAT 904 (IS-904)   
1 27380U 02007A   26190.31581193 -.00000218  00000+0  00000+0 0  9998
2 27380   6.9721  68.9153 0005515  22.0874 278.4753  1.00272289 51988
DIRECTV 5 (TEMPO 1)     
1 27426U 02023A   26190.34201709 -.00000048  00000+0  00000+0 0  9993
2 27426   4.9311  75.0331 0003060  37.3873 187.8801  1.00271042 88343
INTELSAT 905 (IS-905)   
1 27438U 02027A   26190.28439150  .00000101  00000+0  00000+0 0  9995
2 27438   6.8057  69.5306 0003630  43.8235 139.0538  1.00272507 51580
GALAXY 3C (G-3C)        
1 27445U 02030A   26190.05109806 -.00000142  00000+0  00000+0 0  9990
2 27445   3.7866  77.6932 0001604  37.9284  94.9436  1.00270965 46715
INTELSAT 906 (IS-906)   
1 27513U 02041A   26190.22510023  .00000021  00000+0  00000+0 0  9999
2 27513   5.8569  72.6501 0003980  17.5172 342.1626  1.00271925 87249
GALAXY 13 (HORIZONS-1)  
1 27954U 03044A   26190.29451013  .00000145  00000+0  00000+0 0  9999
2 27954   1.4750  83.5819 0002249  15.8132 143.8749  1.00271548 46797
INTELSAT 10-02          
1 28358U 04022A   26190.29975376  .00000002  00000+0  00000+0 0  9990
2 28358   0.0491 261.8304 0000320   4.0600 128.2578  1.00266932 80775
DIRECTV 8               
1 28659U 05019A   26190.04628829  .00000015  00000+0  00000+0 0  9996
2 28659   0.0150  59.8067 0003103  62.1509  62.6496  1.00271925 77298
GALAXY 28 (G-28)        
1 28702U 05022A   26190.31086377 -.00000190  00000+0  00000+0 0  9990
2 28702   3.3523  78.6630 0002102  35.8371 257.5606  1.00270317 52198
GALAXY 16 (G-16)        
1 29236U 06023A   26190.33702147 -.00000113  00000+0  00000+0 0  9992
2 29236   0.0322 122.5133 0002496 351.9452 195.1440  1.00271688 73195
DIRECTV 9S              
1 29494U 06043A   26190.33832299 -.00000102  00000+0  00000+0 0  9990
2 29494   2.4747  80.6364 0005067  30.7573 196.4800  1.00270944 51601
GALAXY 17 (G-17)        
1 31307U 07016B   26190.26689815 -.00000195  00000+0  00000+0 0  9995
2 31307   3.0243  79.6223 0003631  29.1683 189.4786  1.00271543 70024
INTELSAT 11 (IS-11)     
1 32253U 07044B   26190.28934493 -.00000002  00000+0  00000+0 0  9991
2 32253   3.6197  78.4024 0003928  98.0956 243.4389  0.99050109 68669
HORIZONS-2              
1 32388U 07063B   26190.26906483 -.00000242  00000+0  00000+0 0  9993
2 32388   2.6558  80.3559 0003668  15.7876 214.1386  1.00271361 68032
DIRECTV 11              
1 32729U 08013A   26190.33771352 -.00000112  00000+0  00000+0 0  9997
2 32729   0.0377 213.0454 0000150 175.8254 280.7977  1.00268856 45813
GALAXY 18 (G-18)        
1 32951U 08024A   26190.29275304  .00000000  00000+0  00000+0 0  9992
2 32951   0.0211  24.1435 0002988 105.1307 140.3504  1.00262478 46073
GALAXY 19 (G-19)        
1 33376U 08045A   26190.34133691 -.00000126  00000+0  00000+0 0  9995
2 33376   0.0553 251.6745 0002393 222.4571 199.0155  1.00272735 65128
FM-5                    
1 35493U 09034A   26190.26663815 -.00000186  00000+0  00000+0 0  9999
2 35493   0.0363 273.5282 0000318  38.2638 345.2391  1.00268697 46869
INTELSAT 14 (IS-14)     
1 36097U 09064A   26190.31642144 -.00000260  00000+0  00000+0 0  9994
2 36097   0.0149  13.2590 0002290 103.9423 238.9744  1.00270256 60822
INTELSAT 15 (IS-15)     
1 36106U 09067A   26190.10669520 -.00000170  00000+0  00000+0 0  9992
2 36106   0.0158  35.0887 0001977  71.6051 303.9132  1.00265516 41447
DIRECTV 12              
1 36131U 09075A   26190.27911870 -.00000090  00000+0  00000+0 0  9996
2 36131   0.0416 199.5710 0000297   6.2771  79.1219  1.00271269 46771
INTELSAT 16 (IS-16)     
1 36397U 10006A   26190.26863149 -.00000231  00000+0  00000+0 0  9997
2 36397   0.0094 344.5727 0002280 145.2855 177.8560  1.00272107 59870
XM-5                    
1 37185U 10053A   26190.04706829 -.00000009  00000+0  00000+0 0  9995
2 37185   0.0614 268.3491 0001851 310.6043 329.7828  1.00270780 57705
INTELSAT 17 (IS-17)     
1 37238U 10065B   26190.17475156  .00000012  00000+0  00000+0 0  9990
2 37238   0.0127  83.5331 0002592  28.6347 303.8489  1.00271478 53469
INTELSAT 28 (IS-28)     
1 37392U 11016A   26190.31642144 -.00000213  00000+0  00000+0 0  9991
2 37392   1.8603  82.3500 0003732  35.6656 251.4245  1.00272657 53504
INTELSAT 18 (IS-18)     
1 37834U 11056A   26190.26363984  .00000066  00000+0  00000+0 0  9997
2 37834   0.0175 299.5545 0001751 182.2629  80.2883  1.00271758 54035
INTELSAT 22 (IS-22)     
1 38098U 12011A   26190.22336155  .00000000  00000+0  00000+0 0  9996
2 38098   0.0321  62.0629 0001872  70.1255 307.4687  1.00270996  7409
INTELSAT 19 (IS-19)     
1 38356U 12030A   26190.26919753 -.00000043  00000+0  00000+0 0  9997
2 38356   0.0165  24.5041 0003147  96.4738  69.1442  1.00271668 50672
INTELSAT 20 (IS-20)     
1 38740U 12043A   26190.22588023 -.00000010  00000+0  00000+0 0  9990
2 38740   0.0093  48.3094 0000995 127.3328 261.3338  1.00270863 50966
INTELSAT 21 (IS-21)     
1 38749U 12045A   26190.32753146  .00000000  00000+0  00000+0 0  9990
2 38749   0.0243  26.9828 0001698 111.2763 208.9089  1.00267567 50748
