OBJECT_NAME,OBJECT_ID,EPOCH,MEAN_MOTION,ECCENTRICITY,INCLINATION,RA_OF_ASC_NODE,ARG_OF_PERICENTER,MEAN_ANOMALY,EPHEMERIS_TYPE,CLASSIFICATION_TYPE,NORAD_CAT_ID,ELEMENT_SET_NO,REV_AT_EPOCH,BSTAR,MEAN_MOTION_DOT,MEAN_MOTION_DDOT
INTELSAT 902 (IS-902),2001-039A,2026-07-09T07:43:38.755776,1.00271871,.00044233,6.1715,71.5125,33.4879,248.0640,0,U,26900,999,9091,0,-.275E-5,0
INTELSAT 904 (IS-904),2002-007A,2026-07-09T07:34:46.150752,1.00272289,.00055157,6.9721,68.9153,22.0874,278.4753,0,U,27380,999,5198,0,-.218E-5,0
DIRECTV 5 (TEMPO 1),2002-023A,2026-07-09T08:12:30.276576,1.00271042,.00030609,4.9311,75.0331,37.3873,187.8801,0,U,27426,999,8834,0,-.48E-6,0
INTELSAT 905 (IS-905),2002-027A,2026-07-09T06:49:31.425600,1.00272507,.00036308,6.8057,69.5306,43.8235,139.0538,0,U,27438,999,5158,0,.101E-5,0
GALAXY 3C (G-3C),2002-030A,2026-07-09T01:13:34.872384,1.00270965,.00016049,3.7866,77.6932,37.9284,94.9436,0,U,27445,999,4671,0,-.142E-5,0
INTELSAT 906 (IS-906),2002-041A,2026-07-09T05:24:08.659872,1.00271925,.00039808,5.8569,72.6501,17.5172,342.1626,0,U,27513,999,8724,0,.21E-6,0
GALAXY 13 (HORIZONS-1),2003-044A,2026-07-09T07:04:05.675232,1.00271548,.0002249,1.4750,83.5819,15.8132,143.8749,0,U,27954,999,4679,0,.145E-5,0
INTELSAT 10-02,2004-022A,2026-07-09T07:11:38.724864,1.00266932,.00003209,0.0491,261.8304,4.0600,128.2578,0,U,28358,999,8077,0,.2E-7,0
DIRECTV 8,2005-019A,2026-07-09T01:06:39.308256,1.00271925,.00031036,0.0150,59.8067,62.1509,62.6496,0,U,28659,999,7729,0,.15E-6,0
GALAXY 28 (G-28),2005-022A,2026-07-09T07:27:38.629728,1.00270317,.0002102,3.3523,78.6630,35.8371,257.5606,0,U,28702,999,5219,0,-.19E-5,0
GALAXY 16 (G-16),2006-023A,2026-07-09T08:05:18.655008,1.00271688,.00024962,0.0322,122.5133,351.9452,195.1440,0,U,29236,999,7319,0,-.113E-5,0
DIRECTV 9S,2006-043A,2026-07-09T08:07:11.106336,1.00270944,.00050675,2.4747,80.6364,30.7573,196.4800,0,U,29494,999,5160,0,-.102E-5,0
GALAXY 17 (G-17),2007-016B,2026-07-09T06:24:20.000160,1.00271543,.00036319,3.0243,79.6223,29.1683,189.4786,0,U,31307,999,7002,0,-.195E-5,0
INTELSAT 11 (IS-11),2007-044B,2026-07-09T06:56:39.401952,0.99050109,.00039284,3.6197,78.4024,98.0956,243.4389,0,U,32253,999,6866,0,-.2E-7,0
HORIZONS-2,2007-063B,2026-07-09T06:27:27.201312,1.00271361,.00036683,2.6558,80.3559,15.7876,214.1386,0,U,32388,999,6803,0,-.242E-5,0
DIRECTV 11,2008-013A,2026-07-09T08:06:18.448128,1.00268856,.00001506,0.0377,213.0454,175.8254,280.7977,0,U,32729,999,4581,0,-.112E-5,0
GALAXY 18 (G-18),2008-024A,2026-07-09T07:01:33.862656,1.00262478,.00029886,0.0211,24.1435,105.1307,140.3504,0,U,32951,999,4607,0,0,0
GALAXY 19 (G-19),2008-045A,2026-07-09T08:11:31.509024,1.00272735,.00023932,0.0553,251.6745,222.4571,199.0155,0,U,33376,999,6512,0,-.126E-5,0
FM-5,2009-034A,2026-07-09T06:23:57.536160,1.00268697,.00003183,0.0363,273.5282,38.2638,345.2391,0,U,35493,999,4686,0,-.186E-5,0
INTELSAT 14 (IS-14),2009-064A,2026-07-09T07:35:38.812416,1.00270256,.00022905,0.0149,13.2590,103.9423,238.9744,0,U,36097,999,6082,0,-.26E-5,0
INTELSAT 15 (IS-15),2009-067A,2026-07-09T02:33:38.465280,1.00265516,.00019779,0.0158,35.0887,71.6051,303.9132,0,U,36106,999,4144,0,-.17E-5,0
DIRECTV 12,2009-075A,2026-07-09T06:41:55.855680,1.00271269,.00002979,0.0416,199.5710,6.2771,79.1219,0,U,36131,999,4677,0,-.9E-6,0
INTELSAT 16 (IS-16),2010-006A,2026-07-09T06:26:49.760736,1.00272107,.00022808,0.0094,344.5727,145.2855,177.8560,0,U,36397,999,5987,0,-.231E-5,0
XM-5,2010-053A,2026-07-09T01:07:46.700256,1.00270780,.00018516,0.0614,268.3491,310.6043,329.7828,0,U,37185,999,5770,0,-.9E-7,0
INTELSAT 17 (IS-17),2010-065B,2026-07-09T04:11:38.534784,1.00271478,.00025927,0.0127,83.5331,28.6347,303.8489,0,U,37238,999,5346,0,.12E-6,0
INTELSAT 28 (IS-28),2011-016A,2026-07-09T07:35:38.812416,1.00272657,.00037324,1.8603,82.3500,35.6656,251.4245,0,U,37392,999,5350,0,-.213E-5,0
INTELSAT 18 (IS-18),2011-056A,2026-07-09T06:19:38.482176,1.00271758,.00017517,0.0175,299.5545,182.2629,80.2883,0,U,37834,999,5403,0,.66E-6,0
INTELSAT 22 (IS-22),2012-011A,2026-07-09T05:21:38.437920,1.00270996,.00018729,0.0321,62.0629,70.1255,307.4687,0,U,38098,999,740,0,0,0
INTELSAT 19 (IS-19),2012-030A,2026-07-09T06:27:38.666592,1.00271668,.00031472,0.0165,24.5041,96.4738,69.1442,0,U,38356,999,5067,0,-.43E-6,0
INTELSAT 20 (IS-20),2012-043A,2026-07-09T05:25:16.051872,1.00270863,.00009952,0.0093,48.3094,127.3328,261.3338,0,U,38740,999,5096,0,-.1E-6,0
INTELSAT 21 (IS-21),2012-045A,2026-07-09T07:51:38.718144,1.00267567,.00016984,0.0243,26.9828,111.2763,208.9089,0,U,38749,999,5074,0,0,0
